NORAD_CAT_ID,OBJECT_NAME,OBJECT_TYPE,EPOCH,MEAN_MOTION,ECCENTRICITY,INCLINATION,RA_OF_ASC_NODE,ARG_OF_PERICENTER,MEAN_ANOMALY,BSTAR,MEAN_MOTION_DOT,MEAN_MOTION_DDOT,TLE_LINE0,TLE_LINE1,TLE_LINE2,SEMIMAJOR_AXIS,PERIOD,APOGEE,PERIGEE,DECAYED
53001.0,STARLINK-4190,PAYLOAD,2024-01-15 09:19:28,15.08858192,0.0001392,53.2183,14.9842,107.006,253.1085,0.00027619,4.112e-05,0.0,0 STARLINK-4190,1 53001U 22076R   24015.38852301  .00004112  00000-0  27619-3 0  9994,2 53001  53.2183  14.9842 0001392 107.0060 253.1085 15.08858192 84913,6917.825,95.436,540.653,538.727,0.0
53001.0,STARLINK-4190,PAYLOAD,2024-01-16 09:10:16,15.08842068,0.0001703,53.2195,10.5159,154.7409,205.3666,-3.3742e-05,-8.25e-06,0.0,0 STARLINK-4190,1 53001U 22076R   24016.38213539 -.00000825  00000-0 -33742-4 0  9993,2 53001  53.2195  10.5159 0001703 154.7409 205.3666 15.08842068 85067,6917.874,95.437,540.917,538.561,0.0
53001.0,STARLINK-4190,PAYLOAD,2024-01-17 04:14:53,15.08871464,0.0002275,53.219,6.9519,142.8817,217.2333,-0.00037264,-6.219e-05,0.0,0 STARLINK-4190,1 53001U 22076R   24017.17701381 -.00006219  00000-0 -37264-3 0  9993,2 53001  53.2190   6.9519 0002275 142.8817 217.2333 15.08871464 85185,6917.784,95.436,541.223,538.075,0.0
53001.0,STARLINK-4190,PAYLOAD,2024-01-18 04:05:41,15.08838195,0.0001782,53.2192,2.4923,108.0275,252.0911,5.0217e-05,5.11e-06,0.0,0 STARLINK-4190,1 53001U 22076R   24018.17062301  .00000511  00000-0  50217-4 0  9997,2 53001  53.2192   2.4923 0001782 108.0275 252.0911 15.08838195 85331,6917.886,95.438,540.984,538.518,0.0
53001.0,STARLINK-4190,PAYLOAD,2024-01-18 05:41:04,15.08839223,0.0001743,53.2193,2.1954,104.5603,255.5583,5.3494e-05,5.63e-06,0.0,0 STARLINK-4190,1 53001U 22076R   24018.23686268  .00000563  00000-0  53494-4 0  9995,2 53001  53.2193   2.1954 0001743 104.5603 255.5583 15.08839223 84870,6917.883,95.438,540.954,538.542,0.0
53001.0,STARLINK-4190,PAYLOAD,2024-01-18 21:34:56,15.08834904,0.0001687,53.2193,359.2245,96.7165,263.4019,4.2743e-05,3.92e-06,0.0,0 STARLINK-4190,1 53001U 22076R   24018.89926754  .00000392  00000-0  42743-4 0  9999,2 53001  53.2193 359.2245 0001687  96.7165 263.4019 15.08834904 84975,6917.896,95.438,540.928,538.594,0.0
53001.0,STARLINK-4190,PAYLOAD,2024-01-19 08:42:37,15.08852215,0.0001418,53.2175,357.1407,95.7555,264.3599,7.7449e-05,9.45e-06,0.0,0 STARLINK-4190,1 53001U 22076R   24019.36293483  .00000945  00000-0  77449-4 0  9993,2 53001  53.2175 357.1407 0001418  95.7555 264.3599 15.08852215 85515,6917.843,95.437,540.689,538.727,0.0
53001.0,STARLINK-4190,PAYLOAD,2024-01-19 23:01:06,15.08840342,0.0001827,53.219,354.4599,110.3717,249.7472,2.4639e-05,1.04e-06,0.0,0 STARLINK-4190,1 53001U 22076R   24019.95910575  .00000104  00000-0  24639-4 0  9996,2 53001  53.2190 354.4599 0001827 110.3717 249.7472 15.08840342 85135,6917.879,95.438,541.008,538.48,0.0
53001.0,STARLINK-4190,PAYLOAD,2024-01-20 03:47:15,15.08840688,0.000162,53.2178,353.5685,102.4481,257.6692,1.574e-05,-3.8e-07,0.0,0 STARLINK-4190,1 53001U 22076R   24020.15782313 -.00000038  00000-0  15740-4 0  9997,2 53001  53.2178 353.5685 0001620 102.4481 257.6692 15.08840688 85638,6917.878,95.438,540.864,538.623,0.0
53001.0,STARLINK-4190,PAYLOAD,2024-01-20 06:58:02,15.08844978,0.0001488,53.2185,352.9723,86.6259,273.4903,6.1926e-05,6.98e-06,0.0,0 STARLINK-4190,1 53001U 22076R   24020.29030144  .00000698  00000-0  61926-4 0  9998,2 53001  53.2185 352.9723 0001488  86.6259 273.4903 15.08844978 85187,6917.865,95.437,540.76,538.701,0.0
53001.0,STARLINK-4190,PAYLOAD,2024-01-21 05:13:26,15.08842424,0.0001654,53.2189,348.8145,72.1924,287.9249,-3.9343e-06,-3.51e-06,0.0,0 STARLINK-4190,1 53001U 22076R   24021.21766880 -.00000351  00000-0 -39343-5 0  9991,2 53001  53.2189 348.8145 0001654  72.1924 287.9249 15.08842424 85320,6917.873,95.437,540.882,538.594,0.0
53001.0,STARLINK-4190,PAYLOAD,2024-01-21 06:48:49,15.08845252,0.0001642,53.2202,348.5193,75.6013,284.5161,4.9122e-05,4.94e-06,0.0,0 STARLINK-4190,1 53001U 22076R   24021.28390581  .00000494  00000-0  49122-4 0  9990,2 53001  53.2202 348.5193 0001642  75.6013 284.5161 15.08845252 85801,6917.864,95.437,540.865,538.593,0.0
53001.0,STARLINK-4190,PAYLOAD,2024-01-22 03:28:50,15.08840509,0.0001775,53.2218,344.6513,83.0395,277.0799,7.1691e-05,8.53e-06,0.0,0 STARLINK-4190,1 53001U 22076R   24022.14502837  .00000853  00000-0  71691-4 0  9990,2 53001  53.2218 344.6513 0001775  83.0395 277.0799 15.08840509 85932,6917.879,95.438,540.972,538.516,0.0
53001.0,STARLINK-4190,PAYLOAD,2024-01-22 06:39:36,15.08848601,0.0001878,53.22,344.0517,77.5322,282.588,0.00012005,1.623e-05,0.0,0 STARLINK-4190,1 53001U 22076R   24022.27750343  .00001623  00000-0  12005-3 0  9990,2 53001  53.2200 344.0517 0001878  77.5322 282.5880 15.08848601 85486,6917.854,95.437,541.018,538.42,0.0
53001.0,STARLINK-4190,PAYLOAD,2024-01-23 03:19:37,15.08844964,0.000185,53.2215,340.184,86.145,273.9754,5.387e-05,5.69e-06,0.0,0 STARLINK-4190,1 53001U 22076R   24023.13862451  .00000569  00000-0  53870-4 0  9994,2 53001  53.2215 340.1840 0001850  86.1450 273.9754 15.08844964 86085,6917.865,95.437,541.01,538.45,0.0
53001.0,STARLINK-4190,PAYLOAD,2024-01-24 03:10:25,15.08828521,0.0001773,53.22,335.723,104.5524,255.5665,-0.00011888,-2.179e-05,0.0,0 STARLINK-4190,1 53001U 22076R   24024.13224526 -.00002179  00000-0 -11888-3 0  9993,2 53001  53.2200 335.7230 0001773 104.5524 255.5665 15.08828521 86238,6917.915,95.438,541.007,538.554,0.0
53001.0,STARLINK-4190,PAYLOAD,2024-01-25 03:01:11,15.08853704,0.0001903,53.2197,331.2721,82.4498,277.6711,0.00023199,3.407e-05,0.0,0 STARLINK-4190,1 53001U 22076R   24025.12582371  .00003407  00000-0  23199-3 0  9999,2 53001  53.2197 331.2721 0001903  82.4498 277.6711 15.08853704 86382,6917.839,95.437,541.02,538.387,0.0
53001.0,STARLINK-4190,PAYLOAD,2024-01-26 01:16:36,15.08836521,0.0002073,53.2195,327.1122,133.3267,226.7898,0.00016741,2.377e-05,0.0,0 STARLINK-4190,1 53001U 22076R   24026.05319590  .00002377  00000-0  16741-3 0  9993,2 53001  53.2195 327.1122 0002073 133.3267 226.7898 15.08836521 86523,6917.891,95.438,541.19,538.322,0.0
53001.0,STARLINK-4190,PAYLOAD,2024-01-27 01:07:23,15.08850525,0.0001487,53.2179,322.6476,105.9449,254.1707,-7.3593e-05,-1.459e-05,0.0,0 STARLINK-4190,1 53001U 22076R   24027.04679584 -.00001459  00000-0 -73593-4 0  9996,2 53001  53.2179 322.6476 0001487 105.9449 254.1707 15.08850525 86201,6917.848,95.437,540.742,538.685,0.0
53001.0,STARLINK-4190,PAYLOAD,2024-01-28 04:08:57,15.08801775,0.0001663,53.2188,317.594,101.9939,258.124,0.00057115,8.804e-05,0.0,0 STARLINK-4190,1 53001U 22076R   24028.17288616  .00008804  00000-0  57115-3 0  9993,2 53001  53.2188 317.5940 0001663 101.9939 258.1240 15.08801775 86845,6917.997,95.44,541.013,538.712,0.0
53001.0,STARLINK-4190,PAYLOAD,2024-01-29 02:24:20,15.08840416,0.000156,53.2188,313.4329,80.1839,279.933,0.00012106,1.639e-05,0.0,0 STARLINK-4190,1 53001U 22076R   24029.10023827  .00001639  00000-0  12106-3 0  9998,2 53001  53.2188 313.4329 0001560  80.1839 279.9330 15.08840416 86985,6917.879,95.438,540.823,538.665,0.0
53001.0,STARLINK-4190,PAYLOAD,2024-01-29 19:53:35,15.08842004,0.0001571,53.2187,310.1609,82.5863,277.5308,3.0945e-05,2.05e-06,0.0,0 STARLINK-4190,1 53001U 22076R   24029.82887986  .00000205  00000-0  30945-4 0  9991,2 53001  53.2187 310.1609 0001571  82.5863 277.5308 15.08842004 86629,6917.874,95.437,540.826,538.652,0.0
53001.0,STARLINK-4190,PAYLOAD,2024-01-30 02:15:07,15.08846838,0.0001479,53.219,308.9712,88.5886,271.5275,6.1844e-05,6.97e-06,0.0,0 STARLINK-4190,1 53001U 22076R   24030.09383409  .00000697  00000-0  61844-4 0  9990,2 53001  53.2190 308.9712 0001479  88.5886 271.5275 15.08846838 86661,6917.859,95.437,540.748,538.701,0.0
53001.0,STARLINK-4190,PAYLOAD,2024-01-30 22:55:08,15.08844395,0.0001607,53.219,305.1058,83.3545,276.763,-3.0023e-05,-7.66e-06,0.0,0 STARLINK-4190,1 53001U 22076R   24030.95495816 -.00000766  00000-0 -30023-4 0  9995,2 53001  53.2190 305.1058 0001607  83.3545 276.7630 15.08844395 86793,6917.867,95.437,540.844,538.62,0.0
53001.0,STARLINK-4190,PAYLOAD,2024-01-31 00:30:31,15.08845486,0.0001682,53.2191,304.8089,80.1186,279.9996,-2.1968e-05,-6.38e-06,0.0,0 STARLINK-4190,1 53001U 22076R   24031.02119739 -.00000638  00000-0 -21968-4 0  9997,2 53001  53.2191 304.8089 0001682  80.1186 279.9996 15.08845486 87279,6917.864,95.437,540.892,538.565,0.0
53001.0,STARLINK-4190,PAYLOAD,2024-02-01 00:21:18,15.08853865,0.0002038,53.2186,300.3515,78.3644,281.7577,-0.00021436,-3.7e-05,0.0,0 STARLINK-4190,1 53001U 22076R   24032.01479831 -.00003700  00000-0 -21436-3 0  9991,2 53001  53.2186 300.3515 0002038  78.3644 281.7577 15.08853865 86952,6917.838,95.437,541.113,538.293,0.0
53001.0,STARLINK-4190,PAYLOAD,2024-02-02 22:27:29,15.08837272,0.0001475,53.2182,291.7246,90.5395,269.5767,-2.1683e-06,-3.22e-06,0.0,0 STARLINK-4190,1 53001U 22076R   24033.93576148 -.00000322  00000-0 -21683-5 0  9995,2 53001  53.2182 291.7246 0001475  90.5395 269.5767 15.08837272 87247,6917.889,95.438,540.774,538.733,0.0
53001.0,STARLINK-4190,PAYLOAD,2024-02-03 00:02:52,15.08836871,0.0001529,53.2184,291.4275,85.287,274.8297,-9.2067e-06,-4.34e-06,0.0,0 STARLINK-4190,1 53001U 22076R   24034.00200202 -.00000434  00000-0 -92067-5 0  9997,2 53001  53.2184 291.4275 0001529  85.2870 274.8297 15.08836871 87721,6917.89,95.438,540.813,538.697,0.0
53001.0,STARLINK-4190,PAYLOAD,2024-02-03 22:18:16,15.08836755,0.0001449,53.2177,287.2642,91.7779,268.3379,6.1941e-05,6.98e-06,0.0,0 STARLINK-4190,1 53001U 22076R   24034.92936228  .00000698  00000-0  61941-4 0  9998,2 53001  53.2177 287.2642 0001449  91.7779 268.3379 15.08836755 87398,6917.89,95.438,540.758,538.753,0.0
53001.0,STARLINK-4190,PAYLOAD,2024-02-03 23:53:39,15.08838088,0.0001496,53.218,286.9667,95.2773,264.839,7.764e-05,9.48e-06,0.0,0 STARLINK-4190,1 53001U 22076R   24034.99560074  .00000948  00000-0  77640-4 0  9998,2 53001  53.2180 286.9667 0001496  95.2773 264.8390 15.08838088 87407,6917.886,95.438,540.786,538.716,0.0
